NORAD_CAT_ID,OBJECT_NAME,OBJECT_TYPE,EPOCH,MEAN_MOTION,ECCENTRICITY,INCLINATION,RA_OF_ASC_NODE,ARG_OF_PERICENTER,MEAN_ANOMALY,BSTAR,MEAN_MOTION_DOT,MEAN_MOTION_DDOT,TLE_LINE0,TLE_LINE1,TLE_LINE2,SEMIMAJOR_AXIS,PERIOD,APOGEE,PERIGEE,DECAYED
53819.0,STARLINK-4738,PAYLOAD,2023-04-11 05:43:01,15.08847292,0.0001254,53.2188,38.3308,93.8532,266.2603,0.00010553,1.392e-05,0.0,0 STARLINK-4738,1 53819U 22114B   23101.23821088  .00001392  00000-0  10553-3 0  9997,2 53819  53.2188  38.3308 0001254  93.8532 266.2603 15.08847292 32288,6917.858,95.437,540.591,538.856,0.0
53819.0,STARLINK-4738,PAYLOAD,2023-04-12 03:58:25,15.08841102,0.0001054,53.2187,34.1696,93.1803,266.931,7.2739e-05,8.7e-06,0.0,0 STARLINK-4738,1 53819U 22114B   23102.16557795  .00000870  00000-0  72739-4 0  9996,2 53819  53.2187  34.1696 0001054  93.1803 266.9310 15.08841102 31884,6917.877,95.437,540.471,539.013,0.0
53819.0,STARLINK-4738,PAYLOAD,2023-04-12 11:55:21,15.08840162,0.0001051,53.2181,32.6825,93.8268,266.2844,5.1129e-05,5.26e-06,0.0,0 STARLINK-4738,1 53819U 22114B   23102.49677790  .00000526  00000-0  51129-4 0  9998,2 53819  53.2181  32.6825 0001051  93.8268 266.2844 15.08840162 32470,6917.88,95.438,540.472,539.018,0.0
53819.0,STARLINK-4738,PAYLOAD,2023-04-13 03:49:12,15.08843961,0.0001059,53.2181,29.7098,97.7906,262.3206,5.0869e-05,5.22e-06,0.0,0 STARLINK-4738,1 53819U 22114B   23103.15917696  .00000522  00000-0  50869-4 0  9990,2 53819  53.2181  29.7098 0001059  97.7906 262.3206 15.08843961 32579,6917.868,95.437,540.466,539.001,0.0
53819.0,STARLINK-4738,PAYLOAD,2023-04-13 11:46:08,15.08843071,0.0001146,53.2187,28.2245,92.6123,267.5001,-5.9781e-06,-3.83e-06,0.0,0 STARLINK-4738,1 53819U 22114B   23103.49037578 -.00000383  00000-0 -59781-5 0  9999,2 53819  53.2187  28.2245 0001146  92.6123 267.5001 15.08843071 32083,6917.871,95.437,540.529,538.943,0.0
53819.0,STARLINK-4738,PAYLOAD,2023-04-14 05:15:22,15.08849493,8.69e-05,53.2173,24.9517,100.7276,259.3814,0.00017399,2.483e-05,0.0,0 STARLINK-4738,1 53819U 22114B   23104.21901466  .00002483  00000-0  17399-3 0  9994,2 53819  53.2173  24.9517 0000869 100.7276 259.3814 15.08849493 32731,6917.851,95.437,540.318,539.115,0.0
53819.0,STARLINK-4738,PAYLOAD,2023-04-15 01:55:23,15.08849443,0.0001232,53.2171,21.0875,81.9621,278.1511,8.9442e-05,1.136e-05,0.0,0 STARLINK-4738,1 53819U 22114B   23105.08013595  .00001136  00000-0  89442-4 0  9990,2 53819  53.2171  21.0875 0001232  81.9621 278.1511 15.08849443 32865,6917.852,95.437,540.569,538.864,0.0
53819.0,STARLINK-4738,PAYLOAD,2023-04-15 17:49:15,15.08838197,0.000137,53.2177,18.1147,79.2392,280.8754,8.6484e-05,1.089e-05,0.0,0 STARLINK-4738,1 53819U 22114B   23105.74254416  .00001089  00000-0  86484-4 0  9992,2 53819  53.2177  18.1147 0001370  79.2392 280.8754 15.08838197 32423,6917.886,95.438,540.699,538.803,0.0
53819.0,STARLINK-4738,PAYLOAD,2023-04-16 01:46:11,15.08845106,0.0001056,53.2173,16.6253,82.5998,277.5114,5.1302e-05,5.29e-06,0.0,0 STARLINK-4738,1 53819U 22114B   23106.07373902  .00000529  00000-0  51302-4 0  9990,2 53819  53.2173  16.6253 0001056  82.5998 277.5114 15.08845106 32476,6917.865,95.437,540.46,538.999,0.0
53819.0,STARLINK-4738,PAYLOAD,2023-04-16 17:40:02,15.08838938,0.0001184,53.2172,13.6523,83.6893,276.4234,0.00011267,1.506e-05,0.0,0 STARLINK-4738,1 53819U 22114B   23106.73614479  .00001506  00000-0  11267-3 0  9991,2 53819  53.2172  13.6523 0001184  83.6893 276.4234 15.08838938 33118,6917.884,95.438,540.568,538.93,0.0
53819.0,STARLINK-4738,PAYLOAD,2023-04-17 00:01:35,15.08843959,0.0001185,53.2176,12.4633,81.0456,279.067,7.9882e-05,9.84e-06,0.0,0 STARLINK-4738,1 53819U 22114B   23107.00110252  .00000984  00000-0  79882-4 0  9999,2 53819  53.2176  12.4633 0001185  81.0456 279.0670 15.08843959 33155,6917.868,95.437,540.553,538.914,0.0
53819.0,STARLINK-4738,PAYLOAD,2023-04-17 20:41:36,15.08835745,0.0001287,53.2179,8.5978,95.814,264.2999,5.8647e-05,6.46e-06,0.0,0 STARLINK-4738,1 53819U 22114B   23107.86222923  .00000646  00000-0  58647-4 0  9993,2 53819  53.2179   8.5978 0001287  95.8140 264.2999 15.08835745 32740,6917.893,95.438,540.649,538.868,0.0
53819.0,STARLINK-4738,PAYLOAD,2023-04-17 23:52:22,15.088393,0.0001279,53.2176,8.0033,85.8743,274.2395,0.00011545,1.55e-05,0.0,0 STARLINK-4738,1 53819U 22114B   23107.99470807  .00001550  00000-0  11545-3 0  9993,2 53819  53.2176   8.0033 0001279  85.8743 274.2395 15.08839300 33308,6917.883,95.438,540.632,538.863,0.0
53819.0,STARLINK-4738,PAYLOAD,2023-04-19 02:53:56,15.08833235,0.0001345,53.2177,2.9432,94.0348,266.0798,0.00028892,4.312e-05,0.0,0 STARLINK-4738,1 53819U 22114B   23109.12079062  .00004312  00000-0  28892-3 0  9990,2 53819  53.2177   2.9432 0001345  94.0348 266.0798 15.08833235 32937,6917.901,95.438,540.697,538.836,0.0
53819.0,STARLINK-4738,PAYLOAD,2023-04-19 23:33:56,15.0885026,0.00014,53.2178,359.0785,80.8743,279.2408,0.00017149,2.443e-05,0.0,0 STARLINK-4738,1 53819U 22114B   23109.98189909  .00002443  00000-0  17149-3 0  9992,2 53819  53.2178 359.0785 0001400  80.8743 279.2408 15.08850260 33605,6917.849,95.437,540.683,538.746,0.0
53819.0,STARLINK-4738,PAYLOAD,2023-04-21 08:57:03,15.08838355,0.0001201,53.2175,352.8364,75.2363,284.8762,-1.7088e-05,-5.6e-06,0.0,0 STARLINK-4738,1 53819U 22114B   23111.37295402 -.00000560  00000-0 -17088-4 0  9997,2 53819  53.2175 352.8364 0001201  75.2363 284.8762 15.08838355 33810,6917.885,95.438,540.581,538.92,0.0
53819.0,STARLINK-4738,PAYLOAD,2023-04-21 16:53:58,15.08820352,0.0001176,53.217,351.3495,83.0963,277.0163,0.00037503,5.683e-05,0.0,0 STARLINK-4738,1 53819U 22114B   23111.70415084  .00005683  00000-0  37503-3 0  9996,2 53819  53.2170 351.3495 0001176  83.0963 277.0163 15.08820352 33860,6917.94,95.439,540.619,538.992,0.0
53819.0,STARLINK-4738,PAYLOAD,2023-04-22 00:50:54,15.08828025,0.0001239,53.2172,349.8629,86.0994,274.014,0.00049552,7.605e-05,0.0,0 STARLINK-4738,1 53819U 22114B   23112.03534772  .00007605  00000-0  49552-3 0  9992,2 53819  53.2172 349.8629 0001239  86.0994 274.0140 15.08828025 33913,6917.917,95.438,540.639,538.925,0.0
53819.0,STARLINK-4738,PAYLOAD,2023-04-22 16:44:45,15.08835629,0.0001493,53.217,346.892,69.3717,290.7435,0.0002153,3.14e-05,0.0,0 STARLINK-4738,1 53819U 22114B   23112.69774946  .00003140  00000-0  21530-3 0  9999,2 53819  53.2170 346.8920 0001493  69.3717 290.7435 15.08835629 34013,6917.894,95.438,540.792,538.726,0.0
53819.0,STARLINK-4738,PAYLOAD,2023-04-22 23:06:18,15.08837615,0.0001253,53.2172,345.7009,67.0723,293.0401,0.00016609,2.356e-05,0.0,0 STARLINK-4738,1 53819U 22114B   23112.96270986  .00002356  00000-0  16609-3 0  9993,2 53819  53.2172 345.7009 0001253  67.0723 293.0401 15.08837615 34057,6917.888,95.438,540.619,538.886,0.0
53819.0,STARLINK-4738,PAYLOAD,2023-04-23 15:00:09,15.08836922,0.0001081,53.2163,342.7263,70.9596,289.1513,3.7178e-05,3.04e-06,0.0,0 STARLINK-4738,1 53819U 22114B   23113.62511408  .00000304  00000-0  37178-4 0  9990,2 53819  53.2163 342.7263 0001081  70.9596 289.1513 15.08836922 33617,6917.89,95.438,540.503,539.007,0.0
53819.0,STARLINK-4738,PAYLOAD,2023-04-24 00:32:27,15.0885106,0.0001139,53.2175,340.9418,83.4878,276.6243,2.3983e-05,9.4e-07,0.0,0 STARLINK-4738,1 53819U 22114B   23114.02254405  .00000094  00000-0  23983-4 0  9991,2 53819  53.2175 340.9418 0001139  83.4878 276.6243 15.08851060 34216,6917.847,95.437,540.5,538.924,0.0
53819.0,STARLINK-4738,PAYLOAD,2023-04-24 18:01:40,15.08871323,8.8e-05,53.2176,337.6699,95.3776,264.7316,0.00026342,3.911e-05,0.0,0 STARLINK-4738,1 53819U 22114B   23114.75116027  .00003911  00000-0  26342-3 0  9990,2 53819  53.2176 337.6699 0000880  95.3776 264.7316 15.08871323 33786,6917.785,95.436,540.258,539.041,0.0
53819.0,STARLINK-4738,PAYLOAD,2023-04-25 01:58:35,15.08881165,0.0001492,53.2175,336.1849,64.3264,295.7883,0.00053734,8.284e-05,0.0,0 STARLINK-4738,1 53819U 22114B   23115.08235900  .00008284  00000-0  53734-3 0  9992,2 53819  53.2175 336.1849 0001492  64.3264 295.7883 15.08881165 34378,6917.755,95.435,540.652,538.587,0.0
53819.0,STARLINK-4738,PAYLOAD,2023-04-26 01:49:29,15.08773292,0.0001477,53.217,331.721,58.1306,301.983,-0.00087568,-0.00014172,0.0,0 STARLINK-4738,1 53819U 22114B   23116.07603143 -.00014172  00000-0 -87568-3 0  9997,2 53819  53.2170 331.7210 0001477  58.1306 301.9830 15.08773292 33986,6918.084,95.442,540.971,538.927,0.0
53819.0,STARLINK-4738,PAYLOAD,2023-04-26 05:00:13,15.08797581,0.0001327,53.2162,331.1316,91.1787,268.9357,-0.00061082,-9.985e-05,0.0,0 STARLINK-4738,1 53819U 22114B   23116.20848806 -.00009985  00000-0 -61082-3 0  9998,2 53819  53.2162 331.1316 0001327  91.1787 268.9357 15.08797581 34548,6918.01,95.44,540.793,538.957,0.0
53819.0,STARLINK-4738,PAYLOAD,2023-04-26 20:54:04,15.08837588,0.000167,53.2131,328.1552,88.6961,271.4222,0.00049855,7.655e-05,0.0,0 STARLINK-4738,1 53819U 22114B   23116.87088769  .00007655  00000-0  49855-3 0  9999,2 53819  53.2131 328.1552 0001670  88.6961 271.4222 15.08837588 34641,6917.888,95.438,540.908,538.597,0.0
53819.0,STARLINK-4738,PAYLOAD,2023-04-27 01:40:14,15.08838735,0.0001422,53.2144,327.2639,92.3922,267.7233,0.00062292,9.639e-05,0.0,0 STARLINK-4738,1 53819U 22114B   23117.06960941  .00009639  00000-0  62292-3 0  9996,2 53819  53.2144 327.2639 0001422  92.3922 267.7233 15.08838735 34134,6917.884,95.438,540.733,538.766,0.0
53819.0,STARLINK-4738,PAYLOAD,2023-04-27 20:44:51,15.08880609,0.0001221,53.2164,323.6954,84.2383,275.8748,0.0011971,0.00018836,0.0,0 STARLINK-4738,1 53819U 22114B   23117.86448314  .00018836  00000-0  11971-2 0  9995,2 53819  53.2164 323.6954 0001221  84.2383 275.8748 15.08880609 34255,6917.756,95.435,540.466,538.777,0.0
53819.0,STARLINK-4738,PAYLOAD,2023-04-28 06:17:09,15.08871871,0.0001835,53.2167,321.9101,85.6349,274.4853,8.7588e-05,1.107e-05,0.0,0 STARLINK-4738,1 53819U 22114B   23118.26191275  .00001107  00000-0  87588-4 0  9993,2 53819  53.2167 321.9101 0001835  85.6349 274.4853 15.08871871 34311,6917.783,95.436,540.917,538.379,0.0
